{"type": "FeatureCollection", "features": [ {"type": "Feature", "properties": {"norad_id": 34546, "name": "COSMOS 2251 DEB", "group": "cosmos-2251-debris", "lat": 21.869940171775095, "lon": 74.40860182462914, "alt_km": 755.7152669870366, "timestamp": "2025-12-06T09:34:17.308643+00:00", "meta": {"OBJECT_NAME": "COSMOS 2251 DEB", "OBJECT_ID": "1993-036UG", "EPOCH": "2025-12-05T19:50:47.966784", "MEAN_MOTION": 14.45361943, "ECCENTRICITY": 0.00217642, "INCLINATION": 74.0318, "RA_OF_ASC_NODE": 262.0739, "ARG_OF_PERICENTER": 336.5985, "MEAN_ANOMALY": 86.1109, "EPHEMERIS_TYPE": 0, "CLASSIFICATION_TYPE": "U", "NORAD_CAT_ID": 34546, "ELEMENT_SET_NO": 999, "REV_AT_EPOCH": 87926, "BSTAR": 0.001403624, "MEAN_MOTION_DOT": 4.925e-05, "MEAN_MOTION_DDOT": 0}, "tle": {"line1": "1 34546U 93036UG  25339.82694406  .00004925  00000+0  14036-2 0  9999", "line2": "2 34546  74.0318 262.0739 0021764 336.5985  86.1109 14.45361943879262"}}, "geometry": {"type": "Point", "coordinates": [74.40860182462914, 21.869940171775095]}}, {"type": "Feature", "properties": {"norad_id": 34547, "name": "COSMOS 2251 DEB", "group": "cosmos-2251-debris", "lat": 73.60314426615513, "lon": -143.63144839003846, "alt_km": 649.1272497320042, "timestamp": "2025-12-06T09:34:17.308654+00:00", "meta": {"OBJECT_NAME": "COSMOS 2251 DEB", "OBJECT_ID": "1993-036UH", "EPOCH": "2025-12-05T15:12:17.742816", "MEAN_MOTION": 14.72058827, "ECCENTRICITY": 0.0018379, "INCLINATION": 74.0305, "RA_OF_ASC_NODE": 114.5541, "ARG_OF_PERICENTER": 195.0349, "MEAN_ANOMALY": 165.0279, "EPHEMERIS_TYPE": 0, "CLASSIFICATION_TYPE": "U", "NORAD_CAT_ID": 34547, "ELEMENT_SET_NO": 999, "REV_AT_EPOCH": 88417, "BSTAR": 0.0039077616, "MEAN_MOTION_DOT": 0.00024689, "MEAN_MOTION_DDOT": 0}, "tle": {"line1": "1 34547U 93036UH  25339.63353869  .00024689  00000+0  39078-2 0  9996", "line2": "2 34547  74.0305 114.5541 0018379 195.0349 165.0279 14.72058827884176"}}, "geometry": {"type": "Point", "coordinates": [-143.63144839003846, 73.60314426615513]}}, {"type": "Feature", "properties": {"norad_id": 34553, "name": "COSMOS 2251 DEB", "group": "cosmos-2251-debris", "lat": -36.31121574242666, "lon": -168.19887007881513, "alt_km": 696.2259843567199, "timestamp": "2025-12-06T09:34:17.308664+00:00", "meta": {"OBJECT_NAME": "COSMOS 2251 DEB", "OBJECT_ID": "1993-036UP", "EPOCH": "2025-12-05T17:48:12.359808", "MEAN_MOTION": 14.57623042, "ECCENTRICITY": 0.00195954, "INCLINATION": 74.0248, "RA_OF_ASC_NODE": 205.203, "ARG_OF_PERICENTER": 283.0626, "MEAN_ANOMALY": 192.6852, "EPHEMERIS_TYPE": 0, "CLASSIFICATION_TYPE": "U", "NORAD_CAT_ID": 34553, "ELEMENT_SET_NO": 999, "REV_AT_EPOCH": 87994, "BSTAR": 0.002052328, "MEAN_MOTION_DOT": 9.361e-05, "MEAN_MOTION_DDOT": 0}, "tle": {"line1": "1 34553U 93036UP  25339.74180972  .00009361  00000+0  20523-2 0  9993", "line2": "2 34553  74.0248 205.2030 0019595 283.0626 192.6852 14.57623042879949"}}, "geometry": {"type": "Point", "coordinates": [-168.19887007881513, -36.31121574242666]}}, {"type": "Feature", "properties": {"norad_id": 34554, "name": "COSMOS 2251 DEB", "group": "cosmos-2251-debris", "lat": 20.602712715118983, "lon": 124.49169641850497, "alt_km": 778.0411741504595, "timestamp": "2025-12-06T09:34:17.308674+00:00", "meta": {"OBJECT_NAME": "COSMOS 2251 DEB", "OBJECT_ID": "1993-036UQ", "EPOCH": "2025-12-04T23:42:19.325952", "MEAN_MOTION": 14.37912452, "ECCENTRICITY": 0.0022634, "INCLINATION": 74.0382, "RA_OF_ASC_NODE": 313.2655, "ARG_OF_PERICENTER": 17.4579, "MEAN_ANOMALY": 39.2705, "EPHEMERIS_TYPE": 0, "CLASSIFICATION_TYPE": "U", "NORAD_CAT_ID": 34554, "ELEMENT_SET_NO": 999, "REV_AT_EPOCH": 87644, "BSTAR": 0.0006467, "MEAN_MOTION_DOT": 1.933e-05, "MEAN_MOTION_DDOT": 0}, "tle": {"line1": "1 34554U 93036UQ  25338.98772368  .00001933  00000+0  64670-3 0  9994", "line2": "2 34554  74.0382 313.2655 0022634  17.4579  39.2705 14.37912452876445"}}, "geometry": {"type": "Point", "coordinates": [124.49169641850497, 20.602712715118983]}}, {"type": "Feature", "properties": {"norad_id": 34556, "name": "COSMOS 2251 DEB", "group": "cosmos-2251-debris", "lat": 46.48907079230338, "lon": -60.26034392883467, "alt_km": 630.3207396078387, "timestamp": "2025-12-06T09:34:17.308683+00:00", "meta": {"OBJECT_NAME": "COSMOS 2251 DEB", "OBJECT_ID": "1993-036US", "EPOCH": "2025-12-05T22:09:36.893088", "MEAN_MOTION": 14.77459873, "ECCENTRICITY": 0.0008713, "INCLINATION": 74.0155, "RA_OF_ASC_NODE": 138.2477, "ARG_OF_PERICENTER": 197.4564, "MEAN_ANOMALY": 285.6756, "EPHEMERIS_TYPE": 0, "CLASSIFICATION_TYPE": "U", "NORAD_CAT_ID": 34556, "ELEMENT_SET_NO": 999, "REV_AT_EPOCH": 88228, "BSTAR": 0.003560603, "MEAN_MOTION_DOT": 0.00025451, "MEAN_MOTION_DDOT": 0}, "tle": {"line1": "1 34556U 93036US  25339.92334367  .00025451  00000+0  35606-2 0  9991", "line2": "2 34556  74.0155 138.2477 0008713 197.4564 285.6756 14.77459873882286"}}, "geometry": {"type": "Point", "coordinates": [-60.26034392883467, 46.48907079230338]}}, {"type": "Feature", "properties": {"norad_id": 34560, "name": "COSMOS 2251 DEB", "group": "cosmos-2251-debris", "lat": 25.84221952280436, "lon": -33.50003187909887, "alt_km": 652.4365975360324, "timestamp": "2025-12-06T09:34:17.308693+00:00", "meta": {"OBJECT_NAME": "COSMOS 2251 DEB", "OBJECT_ID": "1993-036UW", "EPOCH": "2025-12-05T18:15:09.650304", "MEAN_MOTION": 14.71848761, "ECCENTRICITY": 0.00152187, "INCLINATION": 74.0158, "RA_OF_ASC_NODE": 155.7221, "ARG_OF_PERICENTER": 236.6913, "MEAN_ANOMALY": 135.7434, "EPHEMERIS_TYPE": 0, "CLASSIFICATION_TYPE": "U", "NORAD_CAT_ID": 34560, "ELEMENT_SET_NO": 999, "REV_AT_EPOCH": 88149, "BSTAR": 0.0037712821, "MEAN_MOTION_DOT": 0.00023688, "MEAN_MOTION_DDOT": 0}, "tle": {"line1": "1 34560U 93036UW  25339.76052836  .00023688  00000+0  37713-2 0  9997", "line2": "2 34560  74.0158 155.7221 0015218 236.6913 135.7434 14.71848761881499"}}, "geometry": {"type": "Point", "coordinates": [-33.50003187909887, 25.84221952280436]}}, {"type": "Feature", "properties": {"norad_id": 34563, "name": "COSMOS 2251 DEB", "group": "cosmos-2251-debris", "lat": 38.22233869162155, "lon": 22.519619788281314, "alt_km": 743.6432335369673, "timestamp": "2025-12-06T09:34:17.308703+00:00", "meta": {"OBJECT_NAME": "COSMOS 2251 DEB", "OBJECT_ID": "1993-036UZ", "EPOCH": "2025-12-05T16:36:58.051584", "MEAN_MOTION": 14.46475564, "ECCENTRICITY": 0.00137999, "INCLINATION": 74.0384, "RA_OF_ASC_NODE": 216.8646, "ARG_OF_PERICENTER": 311.0988, "MEAN_ANOMALY": 111.4523, "EPHEMERIS_TYPE": 0, "CLASSIFICATION_TYPE": "U", "NORAD_CAT_ID": 34563, "ELEMENT_SET_NO": 999, "REV_AT_EPOCH": 88095, "BSTAR": 0.00093044821, "MEAN_MOTION_DOT": 3.326e-05, "MEAN_MOTION_DDOT": 0}, "tle": {"line1": "1 34563U 93036UZ  25339.69233856  .00003326  00000+0  93045-3 0  9993", "line2": "2 34563  74.0384 216.8646 0013799 311.0988 111.4523 14.46475564880954"}}, "geometry": {"type": "Point", "coordinates": [22.519619788281314, 38.22233869162155]}}, {"type": "Feature", "properties": {"norad_id": 34564, "name": "COSMOS 2251 DEB", "group": "cosmos-2251-debris", "lat": 48.731407387164786, "lon": -91.2150822860331, "alt_km": 744.1686118530206, "timestamp": "2025-12-06T09:34:17.308713+00:00", "meta": {"OBJECT_NAME": "COSMOS 2251 DEB", "OBJECT_ID": "1993-036VA", "EPOCH": "2025-12-05T20:17:36.924864", "MEAN_MOTION": 14.40671485, "ECCENTRICITY": 0.0018737, "INCLINATION": 74.0328, "RA_OF_ASC_NODE": 250.766, "ARG_OF_PERICENTER": 355.9607, "MEAN_ANOMALY": 67.151, "EPHEMERIS_TYPE": 0, "CLASSIFICATION_TYPE": "U", "NORAD_CAT_ID": 34564, "ELEMENT_SET_NO": 999, "REV_AT_EPOCH": 87907, "BSTAR": 0.00049686745, "MEAN_MOTION_DOT": 1.563e-05, "MEAN_MOTION_DDOT": 0}, "tle": {"line1": "1 34564U 93036VA  25339.84556626  .00001563  00000+0  49687-3 0  9998", "line2": "2 34564  74.0328 250.7660 0018737 355.9607  67.1510 14.40671485879076"}}, "geometry": {"type": "Point", "coordinates": [-91.2150822860331, 48.731407387164786]}}, {"type": "Feature", "properties": {"norad_id": 34567, "name": "COSMOS 2251 DEB", "group": "cosmos-2251-debris", "lat": 59.02858597144703, "lon": -40.28445787555311, "alt_km": 837.7506423070836, "timestamp": "2025-12-06T09:34:17.308723+00:00", "meta": {"OBJECT_NAME": "COSMOS 2251 DEB", "OBJECT_ID": "1993-036VD", "EPOCH": "2025-12-05T23:30:51.795360", "MEAN_MOTION": 14.24005563, "ECCENTRICITY": 0.00746077, "INCLINATION": 74.04, "RA_OF_ASC_NODE": 168.9468, "ARG_OF_PERICENTER": 244.6338, "MEAN_ANOMALY": 245.551, "EPHEMERIS_TYPE": 0, "CLASSIFICATION_TYPE": "U", "NORAD_CAT_ID": 34567, "ELEMENT_SET_NO": 999, "REV_AT_EPOCH": 87028, "BSTAR": 0.00033073579, "MEAN_MOTION_DOT": 7.56e-06, "MEAN_MOTION_DDOT": 0}, "tle": {"line1": "1 34567U 93036VD  25339.97976615  .00000756  00000+0  33074-3 0  9995", "line2": "2 34567  74.0400 168.9468 0074607 244.6338 245.5510 14.24005563870285"}}, "geometry": {"type": "Point", "coordinates": [-40.28445787555311, 59.02858597144703]}}, {"type": "Feature", "properties": {"norad_id": 34569, "name": "COSMOS 2251 DEB", "group": "cosmos-2251-debris", "lat": -73.45737586598501, "lon": 104.74632840474094, "alt_km": 893.3535943620373, "timestamp": "2025-12-06T09:34:17.308733+00:00", "meta": {"OBJECT_NAME": "COSMOS 2251 DEB", "OBJECT_ID": "1993-036VF", "EPOCH": "2025-12-05T22:16:43.284864", "MEAN_MOTION": 14.24723349, "ECCENTRICITY": 0.01569936, "INCLINATION": 73.9912, "RA_OF_ASC_NODE": 210.4521, "ARG_OF_PERICENTER": 40.4245, "MEAN_ANOMALY": 334.2836, "EPHEMERIS_TYPE": 0, "CLASSIFICATION_TYPE": "U", "NORAD_CAT_ID": 34569, "ELEMENT_SET_NO": 999, "REV_AT_EPOCH": 86871, "BSTAR": 0.0009691093, "MEAN_MOTION_DOT": 2.54e-05, "MEAN_MOTION_DDOT": 0}, "tle": {"line1": "1 34569U 93036VF  25339.92827876  .00002540  00000+0  96911-3 0  9998", "line2": "2 34569  73.9912 210.4521 0156993  40.4245 334.2836 14.24723349868715"}}, "geometry": {"type": "Point", "coordinates": [104.74632840474094, -73.45737586598501]}}]}